[{"OBJECT_NAME":"STARLINK-31148","OBJECT_ID":"2024-005P","EPOCH":"2025-10-31T17:49:08.308128","MEAN_MOTION":15.02525806,"ECCENTRICITY":7.52e-5,"INCLINATION":43.0131,"RA_OF_ASC_NODE":202.3893,"ARG_OF_PERICENTER":249.1043,"MEAN_ANOMALY":110.9719,"EPHEMERIS_TYPE":0,"CLASSIFICATION_TYPE":"U","NORAD_CAT_ID":58741,"ELEMENT_SET_NO":999,"REV_AT_EPOCH":10102,"BSTAR":0.00019566,"MEAN_MOTION_DOT":2.44e-5,"MEAN_MOTION_DDOT":0},{"OBJECT_NAME":"STARLINK-31151","OBJECT_ID":"2024-005Q","EPOCH":"2025-10-31T17:44:19.877280","MEAN_MOTION":15.02539385,"ECCENTRICITY":0.0001526,"INCLINATION":43.0038,"RA_OF_ASC_NODE":202.3555,"ARG_OF_PERICENTER":269.48,"MEAN_ANOMALY":90.5868,"EPHEMERIS_TYPE":0,"CLASSIFICATION_TYPE":"U","NORAD_CAT_ID":58742,"ELEMENT_SET_NO":999,"REV_AT_EPOCH":10111,"BSTAR":0.00012264,"MEAN_MOTION_DOT":1.453e-5,"MEAN_MOTION_DDOT":0},{"OBJECT_NAME":"STARLINK-31156","OBJECT_ID":"2024-005R","EPOCH":"2025-10-31T19:15:16.699104","MEAN_MOTION":15.0252926,"ECCENTRICITY":0.0001155,"INCLINATION":43.0005,"RA_OF_ASC_NODE":201.966,"ARG_OF_PERICENTER":262.528,"MEAN_ANOMALY":97.5431,"EPHEMERIS_TYPE":0,"CLASSIFICATION_TYPE":"U","NORAD_CAT_ID":58743,"ELEMENT_SET_NO":999,"REV_AT_EPOCH":10108,"BSTAR":6.1407e-5,"MEAN_MOTION_DOT":6.26e-6,"MEAN_MOTION_DDOT":0},{"OBJECT_NAME":"STARLINK-31167","OBJECT_ID":"2024-005S","EPOCH":"2025-10-31T19:31:15.146400","MEAN_MOTION":15.27598722,"ECCENTRICITY":0.0001207,"INCLINATION":43.0002,"RA_OF_ASC_NODE":82.1271,"ARG_OF_PERICENTER":273.6308,"MEAN_ANOMALY":86.4406,"EPHEMERIS_TYPE":0,"CLASSIFICATION_TYPE":"U","NORAD_CAT_ID":58744,"ELEMENT_SET_NO":999,"REV_AT_EPOCH":10249,"BSTAR":-8.1851e-5,"MEAN_MOTION_DOT":-2.515e-5,"MEAN_MOTION_DDOT":0},{"OBJECT_NAME":"STARLINK-31176","OBJECT_ID":"2024-005T","EPOCH":"2025-10-31T17:29:57.583680","MEAN_MOTION":15.02533377,"ECCENTRICITY":6.37e-5,"INCLINATION":43.0015,"RA_OF_ASC_NODE":202.2773,"ARG_OF_PERICENTER":272.6621,"MEAN_ANOMALY":87.4148,"EPHEMERIS_TYPE":0,"CLASSIFICATION_TYPE":"U","NORAD_CAT_ID":58745,"ELEMENT_SET_NO":999,"REV_AT_EPOCH":10106,"BSTAR":1.2002e-5,"MEAN_MOTION_DOT":-4.1e-7,"MEAN_MOTION_DDOT":0},{"OBJECT_NAME":"STARLINK-31181","OBJECT_ID":"2024-005U","EPOCH":"2025-10-31T16:37:18.928416","MEAN_MOTION":15.27580136,"ECCENTRICITY":0.0002337,"INCLINATION":43.0073,"RA_OF_ASC_NODE":76.0191,"ARG_OF_PERICENTER":250.3225,"MEAN_ANOMALY":109.7375,"EPHEMERIS_TYPE":0,"CLASSIFICATION_TYPE":"U","NORAD_CAT_ID":58746,"ELEMENT_SET_NO":999,"REV_AT_EPOCH":10255,"BSTAR":-4.3969e-5,"MEAN_MOTION_DOT":-1.472e-5,"MEAN_MOTION_DDOT":0},{"OBJECT_NAME":"STARLINK-31183","OBJECT_ID":"2024-005V","EPOCH":"2025-10-31T17:20:21.561792","MEAN_MOTION":15.02536707,"ECCENTRICITY":0.0001257,"INCLINATION":43.0034,"RA_OF_ASC_NODE":202.2273,"ARG_OF_PERICENTER":264.1203,"MEAN_ANOMALY":95.9496,"EPHEMERIS_TYPE":0,"CLASSIFICATION_TYPE":"U","NORAD_CAT_ID":58747,"ELEMENT_SET_NO":999,"REV_AT_EPOCH":10112,"BSTAR":9.8193e-5,"MEAN_MOTION_DOT":1.123e-5,"MEAN_MOTION_DDOT":0},{"OBJECT_NAME":"STARLINK-31165","OBJECT_ID":"2024-005W","EPOCH":"2025-10-31T19:00:53.163072","MEAN_MOTION":15.02534142,"ECCENTRICITY":0.0001271,"INCLINATION":42.9986,"RA_OF_ASC_NODE":201.885,"ARG_OF_PERICENTER":270.4454,"MEAN_ANOMALY":89.6242,"EPHEMERIS_TYPE":0,"CLASSIFICATION_TYPE":"U","NORAD_CAT_ID":58748,"ELEMENT_SET_NO":999,"REV_AT_EPOCH":10103,"BSTAR":6.7391e-5,"MEAN_MOTION_DOT":7.07e-6,"MEAN_MOTION_DDOT":0},{"OBJECT_NAME":"STARLINK-31160","OBJECT_ID":"2024-005X","EPOCH":"2025-10-31T18:46:29.351424","MEAN_MOTION":15.02529705,"ECCENTRICITY":0.0001375,"INCLINATION":43.0035,"RA_OF_ASC_NODE":201.7465,"ARG_OF_PERICENTER":253.2251,"MEAN_ANOMALY":106.8441,"EPHEMERIS_TYPE":0,"CLASSIFICATION_TYPE":"U","NORAD_CAT_ID":58749,"ELEMENT_SET_NO":999,"REV_AT_EPOCH":10103,"BSTAR":0.00016145,"MEAN_MOTION_DOT":1.978e-5,"MEAN_MOTION_DDOT":0},{"OBJECT_NAME":"STARLINK-31179","OBJECT_ID":"2024-005Y","EPOCH":"2025-10-31T18:51:17.481600","MEAN_MOTION":15.02549817,"ECCENTRICITY":0.0001267,"INCLINATION":43.0045,"RA_OF_ASC_NODE":201.8381,"ARG_OF_PERICENTER":268.3227,"MEAN_ANOMALY":91.747,"EPHEMERIS_TYPE":0,"CLASSIFICATION_TYPE":"U","NORAD_CAT_ID":58750,"ELEMENT_SET_NO":999,"REV_AT_EPOCH":10103,"BSTAR":-0.00018779,"MEAN_MOTION_DOT":-2.74e-5,"MEAN_MOTION_DDOT":0},{"OBJECT_NAME":"STARLINK-31127","OBJECT_ID":"2024-011A","EPOCH":"2025-10-31T14:05:59.345088","MEAN_MOTION":15.30182632,"ECCENTRICITY":0.0001323,"INCLINATION":53.1599,"RA_OF_ASC_NODE":253.3838,"ARG_OF_PERICENTER":84.3702,"MEAN_ANOMALY":275.745,"EPHEMERIS_TYPE":0,"CLASSIFICATION_TYPE":"U","NORAD_CAT_ID":58765,"ELEMENT_SET_NO":999,"REV_AT_EPOCH":10050,"BSTAR":-1.7939e-5,"MEAN_MOTION_DOT":-8.9e-6,"MEAN_MOTION_DDOT":0},{"OBJECT_NAME":"STARLINK-31114","OBJECT_ID":"2024-011B","EPOCH":"2025-10-31T03:20:31.446240","MEAN_MOTION":15.30189981,"ECCENTRICITY":0.00011851,"INCLINATION":53.1596,"RA_OF_ASC_NODE":253.4529,"ARG_OF_PERICENTER":87.6111,"MEAN_ANOMALY":272.5026,"EPHEMERIS_TYPE":0,"CLASSIFICATION_TYPE":"U","NORAD_CAT_ID":58766,"ELEMENT_SET_NO":999,"REV_AT_EPOCH":10046,"BSTAR":1.1199328e-5,"MEAN_MOTION_DOT":-2.7e-7,"MEAN_MOTION_DDOT":0},{"OBJECT_NAME":"STARLINK-31140","OBJECT_ID":"2024-011C","EPOCH":"2025-10-31T13:56:52.014912","MEAN_MOTION":15.3018402,"ECCENTRICITY":0.0001194,"INCLINATION":53.1601,"RA_OF_ASC_NODE":253.344,"ARG_OF_PERICENTER":90.0754,"MEAN_ANOMALY":270.0384,"EPHEMERIS_TYPE":0,"CLASSIFICATION_TYPE":"U","NORAD_CAT_ID":58767,"ELEMENT_SET_NO":999,"REV_AT_EPOCH":10050,"BSTAR":-4.3387e-5,"MEAN_MOTION_DOT":-1.643e-5,"MEAN_MOTION_DDOT":0},{"OBJECT_NAME":"STARLINK-31145","OBJECT_ID":"2024-011D","EPOCH":"2025-10-31T20:00:03.000384","MEAN_MOTION":15.24761291,"ECCENTRICITY":0.0006215,"INCLINATION":53.1506,"RA_OF_ASC_NODE":260.5833,"ARG_OF_PERICENTER":118.3197,"MEAN_ANOMALY":199.8524,"EPHEMERIS_TYPE":0,"CLASSIFICATION_TYPE":"U","NORAD_CAT_ID":58768,"ELEMENT_SET_NO":999,"REV_AT_EPOCH":582,"BSTAR":0.0057975,"MEAN_MOTION_DOT":0.0014819,"MEAN_MOTION_DDOT":0},{"OBJECT_NAME":"STARLINK-31146","OBJECT_ID":"2024-011E","EPOCH":"2025-10-31T04:27:58.861152","MEAN_MOTION":15.30191497,"ECCENTRICITY":0.00013185,"INCLINATION":53.1628,"RA_OF_ASC_NODE":255.1433,"ARG_OF_PERICENTER":100.8597,"MEAN_ANOMALY":259.2552,"EPHEMERIS_TYPE":0,"CLASSIFICATION_TYPE":"U","NORAD_CAT_ID":58769,"ELEMENT_SET_NO":999,"REV_AT_EPOCH":10044,"BSTAR":1.9561746e-5,"MEAN_MOTION_DOT":2.2e-6,"MEAN_MOTION_DDOT":0},{"OBJECT_NAME":"STARLINK-31143","OBJECT_ID":"2024-011F","EPOCH":"2025-10-31T13:47:43.857888","MEAN_MOTION":15.30209766,"ECCENTRICITY":0.000149,"INCLINATION":53.1614,"RA_OF_ASC_NODE":253.3037,"ARG_OF_PERICENTER":86.2961,"MEAN_ANOMALY":273.821,"EPHEMERIS_TYPE":0,"CLASSIFICATION_TYPE":"U","NORAD_CAT_ID":58770,"ELEMENT_SET_NO":999,"REV_AT_EPOCH":10050,"BSTAR":-0.00018957,"MEAN_MOTION_DOT":-5.971e-5,"MEAN_MOTION_DDOT":0}]
