STARLINK-31148          
1 58741U 24005P   25304.74245727  .00002440  00000+0  19566-3 0  9997
2 58741  43.0131 202.3893 0000752 249.1043 110.9719 15.02525806101029
STARLINK-31151          
1 58742U 24005Q   25304.73911895  .00001453  00000+0  12264-3 0  9994
2 58742  43.0038 202.3555 0001526 269.4800  90.5868 15.02539385101112
STARLINK-31156          
1 58743U 24005R   25304.80227661  .00000626  00000+0  61407-4 0  9999
2 58743  43.0005 201.9660 0001155 262.5280  97.5431 15.02529260101083
STARLINK-31167          
1 58744U 24005S   25304.81336975 -.00002515  00000+0 -81851-4 0  9996
2 58744  43.0002  82.1271 0001207 273.6308  86.4406 15.27598722102491
STARLINK-31176          
1 58745U 24005T   25304.72913870 -.00000041  00000+0  12002-4 0  9995
2 58745  43.0015 202.2773 0000637 272.6621  87.4148 15.02533377101065
STARLINK-31181          
1 58746U 24005U   25304.69258019 -.00001472  00000+0 -43969-4 0  9995
2 58746  43.0073  76.0191 0002337 250.3225 109.7375 15.27580136102550
STARLINK-31183          
1 58747U 24005V   25304.72247178  .00001123  00000+0  98193-4 0  9994
2 58747  43.0034 202.2273 0001257 264.1203  95.9496 15.02536707101121
STARLINK-31165          
1 58748U 24005W   25304.79228198  .00000707  00000+0  67391-4 0  9996
2 58748  42.9986 201.8850 0001271 270.4454  89.6242 15.02534142101036
STARLINK-31160          
1 58749U 24005X   25304.78228416  .00001978  00000+0  16145-3 0  9990
2 58749  43.0035 201.7465 0001375 253.2251 106.8441 15.02529705101036
STARLINK-31179          
1 58750U 24005Y   25304.78561900 -.00002740  00000+0 -18779-3 0  9995
2 58750  43.0045 201.8381 0001267 268.3227  91.7470 15.02549817101037
STARLINK-31127          
1 58765U 24011A   25304.58749242 -.00000890  00000+0 -17939-4 0  9995
2 58765  53.1599 253.3838 0001323  84.3702 275.7450 15.30182632100507
STARLINK-31114          
1 58766U 24011B   25304.13925285 -.00000027  00000+0  11199-4 0  9993
2 58766  53.1596 253.4529 0001185  87.6111 272.5026 15.30189981100462
STARLINK-31140          
1 58767U 24011C   25304.58115758 -.00001643  00000+0 -43387-4 0  9999
2 58767  53.1601 253.3440 0001194  90.0754 270.0384 15.30184020100506
STARLINK-31145          
1 58768U 24011D   25304.83336806  .00148190  00000+0  57975-2 0  9990
2 58768  53.1506 260.5833 0006215 118.3197 199.8524 15.24761291  5828
STARLINK-31146          
1 58769U 24011E   25304.18609793  .00000220  00000+0  19562-4 0  9990
2 58769  53.1628 255.1433 0001318 100.8597 259.2552 15.30191497100447
STARLINK-31143          
1 58770U 24011F   25304.57481317 -.00005971  00000+0 -18957-3 0  9991
2 58770  53.1614 253.3037 0001490  86.2961 273.8210 15.30209766100506
